CSS (TIANHE)            
1 48274U 21035A   24257.08081137  .00046442  00000+0  48052-3 0  9995
2 48274  41.4683 267.2898 0001620 128.2888 231.8098 15.63903079192849
